[{"OBJECT_NAME":"VIZARD-METEO (RS38S)","OBJECT_ID":"2023-091Z","EPOCH":"2026-03-09T23:01:09.168960","MEAN_MOTION":15.32764799,"ECCENTRICITY":0.00087615,"INCLINATION":97.5192,"RA_OF_ASC_NODE":136.6522,"ARG_OF_PERICENTER":71.7666,"MEAN_ANOMALY":288.4529,"EPHEMERIS_TYPE":0,"CLASSIFICATION_TYPE":"U","NORAD_CAT_ID":57189,"ELEMENT_SET_NO":999,"REV_AT_EPOCH":14947,"BSTAR":0.00066106249,"MEAN_MOTION_DOT":0.00020895,"MEAN_MOTION_DDOT":0},{"OBJECT_NAME":"STARLINK-32424","OBJECT_ID":"2024-184S","EPOCH":"2026-03-09T03:54:30.515616","MEAN_MOTION":15.30191613,"ECCENTRICITY":0.00010111,"INCLINATION":53.161,"RA_OF_ASC_NODE":16.5816,"ARG_OF_PERICENTER":93.8363,"MEAN_ANOMALY":266.2753,"EPHEMERIS_TYPE":0,"CLASSIFICATION_TYPE":"U","NORAD_CAT_ID":61548,"ELEMENT_SET_NO":999,"REV_AT_EPOCH":7842,"BSTAR":-9.494418e-6,"MEAN_MOTION_DOT":-6.4e-6,"MEAN_MOTION_DDOT":0}]
